NORAD_CAT_ID,OBJECT_NAME,OBJECT_TYPE,EPOCH,MEAN_MOTION,ECCENTRICITY,INCLINATION,RA_OF_ASC_NODE,ARG_OF_PERICENTER,MEAN_ANOMALY,BSTAR,MEAN_MOTION_DOT,MEAN_MOTION_DDOT,TLE_LINE0,TLE_LINE1,TLE_LINE2,SEMIMAJOR_AXIS,PERIOD,APOGEE,PERIGEE,DECAYED
51771.0,STARLINK-3614,PAYLOAD,2022-10-24 11:30:01,15.08834419,0.0001784,53.217,110.7289,52.1365,307.9789,7.4154e-05,8.92e-06,0.0,0 STARLINK-3614,1 51771U 22017D   22297.47918227  .00000892  00000-0  74154-4 0  9999,2 51771  53.2170 110.7289 0001784  52.1365 307.9789 15.08834419 36589,6917.897,95.438,540.997,538.528,0.0
51771.0,STARLINK-3614,PAYLOAD,2022-10-24 17:51:34,15.08832985,0.0001802,53.218,109.5388,53.3268,306.7889,-5.5281e-05,-1.168e-05,0.0,0 STARLINK-3614,1 51771U 22017D   22297.74414744 -.00001168  00000-0 -55281-4 0  9993,2 51771  53.2180 109.5388 0001802  53.3268 306.7889 15.08832985 36621,6917.901999999999,95.438,541.013,538.52,0.0
51771.0,STARLINK-3614,PAYLOAD,2022-10-24 21:02:20,15.08831076,0.000183,53.2176,108.9441,51.2494,308.8661,-5.3801e-05,-1.144e-05,0.0,0 STARLINK-3614,1 51771U 22017D   22297.87662902 -.00001144  00000-0 -53801-4 0  9998,2 51771  53.2176 108.9441 0001830  51.2494 308.8661 15.08831076 38092,6917.908,95.438,541.039,538.507,0.0
51771.0,STARLINK-3614,PAYLOAD,2022-10-25 04:59:16,15.08832345,0.000184,53.2175,107.4572,52.6986,307.4174,-4.3161e-05,-9.75e-06,0.0,0 STARLINK-3614,1 51771U 22017D   22298.20782872 -.00000975  00000-0 -43161-4 0  9994,2 51771  53.2175 107.4572 0001840  52.6986 307.4174 15.08832345 36690,6917.904,95.438,541.0419999999998,538.496,0.0
51771.0,STARLINK-3614,PAYLOAD,2022-10-25 17:42:21,15.08836504,0.0001756,53.2177,105.0781,53.37600000000001,306.7393,-3.7284e-05,-8.81e-06,0.0,0 STARLINK-3614,1 51771U 22017D   22298.73774617 -.00000881  00000-0 -37284-4 0  9995,2 51771  53.2177 105.0781 0001756  53.3760 306.7393 15.08836504 36777,6917.891,95.438,540.971,538.5409999999998,0.0
51771.0,STARLINK-3614,PAYLOAD,2022-10-26 04:50:03,15.08836291,0.0001754,53.218,102.9962,54.5699,305.5457,3.3331e-05,2.42e-06,0.0,0 STARLINK-3614,1 51771U 22017D   22299.20142518  .00000242  00000-0  33331-4 0  9995,2 51771  53.2180 102.9962 0001754  54.5699 305.5457 15.08836291 36849,6917.892,95.438,540.97,538.543,0.0
51771.0,STARLINK-3614,PAYLOAD,2022-10-26 17:33:08,15.0883764,0.0001783,53.2183,100.6175,52.0875,308.0278,0.00010428,1.372e-05,0.0,0 STARLINK-3614,1 51771U 22017D   22299.73134326  .00001372  00000-0  10428-3 0  9997,2 51771  53.2183 100.6175 0001783  52.0875 308.0278 15.08837640 36921,6917.888000000001,95.438,540.986,538.519,0.0
51771.0,STARLINK-3614,PAYLOAD,2022-10-26 22:19:17,15.08838662,0.0001808,53.2181,99.7255,52.3761,307.7395,0.0001373,1.898e-05,0.0,0 STARLINK-3614,1 51771U 22017D   22299.93006201  .00001898  00000-0  13730-3 0  9991,2 51771  53.2181  99.7255 0001808  52.3761 307.7395 15.08838662 36955,6917.884,95.438,541.0,538.499,0.0
51771.0,STARLINK-3614,PAYLOAD,2022-10-27 12:37:45,15.08840885,0.0001825,53.218,97.0493,52.8764,307.2395,9.8277e-05,1.276e-05,0.0,0 STARLINK-3614,1 51771U 22017D   22300.52622246  .00001276  00000-0  98277-4 0  9992,2 51771  53.2180  97.0493 0001825  52.8764 307.2395 15.08840885 37042,6917.878000000002,95.437,541.005,538.48,0.0
51771.0,STARLINK-3614,PAYLOAD,2022-10-27 20:34:41,15.08831005,0.000187,53.2181,95.5625,51.8747,308.2414,0.00012045,1.629e-05,0.0,0 STARLINK-3614,1 51771U 22017D   22300.85742787  .00001629  00000-0  12045-3 0  9991,2 51771  53.2181  95.5625 0001870  51.8747 308.2414 15.08831005 38546,6917.908,95.438,541.067,538.479,0.0
51771.0,STARLINK-3614,PAYLOAD,2022-10-28 02:56:13,15.08839347,0.0001869,53.2183,94.3731,52.083,308.0331,0.00012999,1.781e-05,0.0,0 STARLINK-3614,1 51771U 22017D   22301.12238311  .00001781  00000-0  12999-3 0  9992,2 51771  53.2183  94.3731 0001869  52.0830 308.0331 15.08839347 38584,6917.882,95.438,541.04,538.4540000000002,0.0
51771.0,STARLINK-3614,PAYLOAD,2022-10-28 17:14:42,15.08841518,0.0001764999999999,53.2185,91.6965,48.5506,311.5637,5.7244000000000015e-06,-1.97e-06,0.0,0 STARLINK-3614,1 51771U 22017D   22301.71854355 -.00000197  00000-0  57244-5 0  9994,2 51771  53.2185  91.6965 0001765  48.5506 311.5637 15.08841518 37221,6917.876,95.437,540.962,538.52,0.0
51771.0,STARLINK-3614,PAYLOAD,2022-10-29 02:47:00,15.08847025,0.0001768,53.2192,89.9133,53.2065,306.9089,-2.2374e-05,-6.44e-06,0.0,0 STARLINK-3614,1 51771U 22017D   22302.11597984 -.00000644  00000-0 -22374-4 0  9994,2 51771  53.2192  89.9133 0001768  53.2065 306.9089 15.08847025 37286,6917.859,95.437,540.947,538.501,0.0
51771.0,STARLINK-3614,PAYLOAD,2022-10-29 20:16:15,15.08840446,0.0001857,53.2187,86.6427,59.9567,300.1609,-4.0894e-05,-9.39e-06,0.0,0 STARLINK-3614,1 51771U 22017D   22302.84462387 -.00000939  00000-0 -40894-4 0  9996,2 51771  53.2187  86.6427 0001857  59.9567 300.1609 15.08840446 38846,6917.879,95.438,541.029,538.4590000000002,0.0
51771.0,STARLINK-3614,PAYLOAD,2022-10-30 18:31:39,15.08838422,0.0001694,53.2172,82.4784,50.0748,310.0392,3.5768e-05,2.81e-06,0.0,0 STARLINK-3614,1 51771U 22017D   22303.77198457  .00000281  00000-0  35768-4 0  9995,2 51771  53.2172  82.4784 0001694  50.0748 310.0392 15.08838422 37537,6917.885,95.438,540.922,538.578,0.0
51771.0,STARLINK-3614,PAYLOAD,2022-10-31 08:50:08,15.08835512,0.0001793,53.2179,79.7994,46.2597,313.8543,-7.008100000000001e-05,-1.403e-05,0.0,0 STARLINK-3614,1 51771U 22017D   22304.36815193 -.00001403  00000-0 -70081-4 0  9990,2 51771  53.2179  79.7994 0001793  46.2597 313.8543 15.08835512 37621,6917.894,95.438,540.999,538.519,0.0
51771.0,STARLINK-3614,PAYLOAD,2022-10-31 15:11:40,15.08838482,0.0001546,53.218,78.6127,39.8642,320.2463,2.3784e-05,9.1e-07,0.0,0 STARLINK-3614,1 51771U 22017D   22304.63310673  .00000091  00000-0  23784-4 0  9991,2 51771  53.2180  78.6127 0001546  39.8642 320.2463 15.08838482 39112,6917.885,95.438,540.82,538.681,0.0
51771.0,STARLINK-3614,PAYLOAD,2022-11-01 02:19:21,15.08843128,0.000193,53.2185,76.5309,44.1713,315.9433,0.00019245,2.776e-05,0.0,0 STARLINK-3614,1 51771U 22017D   22305.09677888  .00002776  00000-0  19245-3 0  9994,2 51771  53.2185  76.5309 0001930  44.1713 315.9433 15.08843128 39189,6917.871,95.437,541.071,538.401,0.0
51771.0,STARLINK-3614,PAYLOAD,2022-11-01 08:40:54,15.08838855,0.0001721999999999,53.215,75.34,50.0647,310.0497,0.00011384,1.524e-05,0.0,0 STARLINK-3614,1 51771U 22017D   22305.36174342  .00001524  00000-0  11384-3 0  9997,2 51771  53.2150  75.3400 0001722  50.0647 310.0497 15.08838855 39223,6917.884,95.438,540.94,538.558,0.0
51771.0,STARLINK-3614,PAYLOAD,2022-11-01 18:13:14,15.08832132,0.0001942,53.2166,73.5564,50.9187,309.1978,7.2227e-05,8.61e-06,0.0,0 STARLINK-3614,1 51771U 22017D   22305.75919042  .00000861  00000-0  72227-4 0  9991,2 51771  53.2166  73.5564 0001942  50.9187 309.1978 15.08832132 39284,6917.904,95.438,541.113,538.4259999999998,0.0
51771.0,STARLINK-3614,PAYLOAD,2022-11-02 11:42:28,15.08831382,0.0001247,53.2187,70.2831,41.4047,318.704,8.768e-05,1.108e-05,0.0,0 STARLINK-3614,1 51771U 22017D   22306.48782929  .00001108  00000-0  87680-4 0  9998,2 51771  53.2187  70.2831 0001247  41.4047 318.7040 15.08831382 37949,6917.906999999997,95.438,540.634,538.909,0.0
51771.0,STARLINK-3614,PAYLOAD,2022-11-02 14:53:15,15.08834133,0.0002016,53.2176,69.6924,44.247,315.8683,-6.4842e-05,-1.32e-05,0.0,0 STARLINK-3614,1 51771U 22017D   22306.62031421 -.00001320  00000-0 -64842-4 0  9991,2 51771  53.2176  69.6924 0002016  44.2470 315.8683 15.08834133 37968,6917.898,95.438,541.158,538.369,0.0
51771.0,STARLINK-3614,PAYLOAD,2022-11-03 11:33:14,15.08848891,0.0002113,53.2173,65.8281,34.2545,325.8583,0.00010393,1.367e-05,0.0,0 STARLINK-3614,1 51771U 22017D   22307.48141980  .00001367  00000-0  10393-3 0  9998,2 51771  53.2173  65.8281 0002113  34.2545 325.8583 15.08848891 39541,6917.853,95.437,541.18,538.256,0.0
51771.0,STARLINK-3614,PAYLOAD,2022-11-03 17:54:46,15.088546,0.0001786999999999,53.219,64.6366,52.3507,307.7647,0.00016096,2.276e-05,0.0,0 STARLINK-3614,1 51771U 22017D   22307.74637223  .00002276  00000-0  16096-3 0  9993,2 51771  53.2190  64.6366 0001787  52.3507 307.7647 15.08854600 39585,6917.8359999999975,95.437,540.937,538.465,0.0
51771.0,STARLINK-3614,PAYLOAD,2022-11-04 08:13:14,15.08849831,0.0001686,53.2191,61.9598,42.6913,317.421,0.0001771,2.532e-05,0.0,0 STARLINK-3614,1 51771U 22017D   22308.34252971  .00002532  00000-0  17710-3 0  9992,2 51771  53.2191  61.9598 0001686  42.6913 317.4210 15.08849831 39678,6917.85,95.437,540.882,538.549,0.0
51771.0,STARLINK-3614,PAYLOAD,2022-11-04 17:45:34,15.08841355,0.0001858,53.2215,60.177,15.6583,344.4466,7.429e-05,8.94e-06,0.0,0 STARLINK-3614,1 51771U 22017D   22308.73997751  .00000894  00000-0  74290-4 0  9993,2 51771  53.2215  60.1770 0001858  15.6583 344.4466 15.08841355 39735,6917.876,95.437,541.0269999999998,538.456,0.0
51771.0,STARLINK-3614,PAYLOAD,2022-11-05 08:04:02,15.08844964,0.0001513,53.2217,57.5,45.6128,314.4988,-0.0001172,-2.153e-05,0.0,0 STARLINK-3614,1 51771U 22017D   22309.33614184 -.00002153  00000-0 -11720-3 0  9996,2 51771  53.2217  57.5000 0001513  45.6128 314.4988 15.08844964 38373,6917.865,95.437,540.7769999999998,538.684,0.0
51771.0,STARLINK-3614,PAYLOAD,2022-11-05 16:01:00,15.08822345,0.0001858,53.2193,56.0135,48.9242,311.1911,-0.00027085,-4.594e-05,0.0,0 STARLINK-3614,1 51771U 22017D   22309.66736187 -.00004594  00000-0 -27085-3 0  9992,2 51771  53.2193  56.0135 0001858  48.9242 311.1911 15.08822345 39879,6917.934,95.439,541.085,538.514,0.0
51771.0,STARLINK-3614,PAYLOAD,2022-11-06 12:41:00,15.08826462,0.0002045,53.2185,52.1488,42.4391,317.6759,-1.2042e-05,-4.8e-06,0.0,0 STARLINK-3614,1 51771U 22017D   22310.52848022 -.00000480  00000-0 -12042-4 0  9999,2 51771  53.2185  52.1488 0002045  42.4391 317.6759 15.08826462 40003,6917.922,95.438,541.201,538.372,0.0
